start=new Date('2021-12-19T00:00:00.000Z').valueOf();
sats=[{"ELEMENT_SET_NO":"999","RCS_SIZE":"LARGE","LAUNCH_DATE":"2021-12-02","GP_ID":"191944598","CENTER_NAME":"EARTH","MEAN_MOTION":"15.33376549","EPOCH":"2021-12-18T14:00:01.000224","REF_FRAME":"TEME","REV_AT_EPOCH":"287","SITE":"AFETR","TLE_LINE1":"1 49732U 21115J   21352.58334491 -.00657486  00000-0 -21625-1 0  9990","OBJECT_NAME":"STARLINK-3246","TLE_LINE2":"2 49732  53.2173 243.6252 0001329  65.9198 219.2000 15.33376549  2872","PERIAPSIS":"464.839","TIME_SYSTEM":"UTC","OBJECT_TYPE":"PAYLOAD","CLASSIFICATION_TYPE":"U","SEMIMAJOR_AXIS":"6843.884","FILE":"3243681","BSTAR":"-0.02162500000000","OBJECT_ID":"2021-115J","MEAN_ANOMALY":"219.2000","NORAD_CAT_ID":"49732","RA_OF_ASC_NODE":"243.6252","MEAN_MOTION_DDOT":"0.0000000000000","COUNTRY_CODE":"US","INCLINATION":"53.2173","DECAY_DATE":null,"MEAN_MOTION_DOT":"-0.00657486","EPHEMERIS_TYPE":"0","APOAPSIS":"466.658","MEAN_ELEMENT_THEORY":"SGP4","PERIOD":"93.910","ARG_OF_PERICENTER":"65.9198","ECCENTRICITY":"0.00013290"},{"INCLINATION":"53.2173","DECAY_DATE":null,"COUNTRY_CODE":"US","MEAN_MOTION_DDOT":"0.0000000000000","ARG_OF_PERICENTER":"73.9572","PERIOD":"93.882","MEAN_ELEMENT_THEORY":"SGP4","ECCENTRICITY":"0.00012610","APOAPSIS":"465.226","EPHEMERIS_TYPE":"0","MEAN_MOTION_DOT":"-0.00657219","EPOCH":"2021-12-18T14:00:01.000224","REF_FRAME":"TEME","REV_AT_EPOCH":"287","MEAN_MOTION":"15.33842323","CENTER_NAME":"EARTH","SITE":"AFETR","LAUNCH_DATE":"2021-12-02","RCS_SIZE":"LARGE","ELEMENT_SET_NO":"999","GP_ID":"191944396","BSTAR":"-0.02129800000000","FILE":"3243681","OBJECT_ID":"2021-115K","RA_OF_ASC_NODE":"243.6270","NORAD_CAT_ID":"49733","MEAN_ANOMALY":"221.4720","OBJECT_NAME":"STARLINK-3252","TLE_LINE1":"1 49733U 21115K   21352.58334491 -.00657219  00000-0 -21298-1 0  9991","SEMIMAJOR_AXIS":"6842.498","OBJECT_TYPE":"PAYLOAD","CLASSIFICATION_TYPE":"U","TIME_SYSTEM":"UTC","PERIAPSIS":"463.500","TLE_LINE2":"2 49733  53.2173 243.6270 0001261  73.9572 221.4720 15.33842323  2875"},{"DECAY_DATE":null,"INCLINATION":"53.2149","MEAN_MOTION_DDOT":"0.0000000000000","COUNTRY_CODE":"US","ECCENTRICITY":"0.00012380","PERIOD":"93.480","MEAN_ELEMENT_THEORY":"SGP4","ARG_OF_PERICENTER":"63.3810","EPHEMERIS_TYPE":"0","MEAN_MOTION_DOT":"0.00041117","APOAPSIS":"445.670","SITE":"AFETR","CENTER_NAME":"EARTH","REF_FRAME":"TEME","EPOCH":"2021-12-18T14:00:01.000224","REV_AT_EPOCH":"287","MEAN_MOTION":"15.40435496","GP_ID":"191943384","LAUNCH_DATE":"2021-12-02","ELEMENT_SET_NO":"999","RCS_SIZE":"LARGE","MEAN_ANOMALY":"285.4897","RA_OF_ASC_NODE":"243.5727","NORAD_CAT_ID":"49734","OBJECT_ID":"2021-115L","FILE":"3243681","BSTAR":"0.00100510000000","TIME_SYSTEM":"UTC","TLE_LINE2":"2 49734  53.2149 243.5727 0001238  63.3810 285.4897 15.40435496  2879","PERIAPSIS":"443.980","SEMIMAJOR_AXIS":"6822.960","OBJECT_TYPE":"PAYLOAD","CLASSIFICATION_TYPE":"U","OBJECT_NAME":"STARLINK-3238","TLE_LINE1":"1 49734U 21115L   21352.58334491  .00041117  00000-0  10051-2 0  9990"},{"OBJECT_ID":"2021-115M","FILE":"3243862","BSTAR":"-0.02185200000000","NORAD_CAT_ID":"49735","RA_OF_ASC_NODE":"242.0702","MEAN_ANOMALY":"271.9388","OBJECT_NAME":"STARLINK-3113","TLE_LINE1":"1 49735U 21115M   21352.91667824 -.00659370  00000-0 -21852-1 0  9995","SEMIMAJOR_AXIS":"6844.575","OBJECT_TYPE":"PAYLOAD","CLASSIFICATION_TYPE":"U","PERIAPSIS":"465.513","TLE_LINE2":"2 49735  53.2174 242.0702 0001354  59.4814 271.9388 15.33144240  3720","TIME_SYSTEM":"UTC","MEAN_MOTION":"15.33144240","REF_FRAME":"TEME","EPOCH":"2021-12-18T22:00:00.999936","REV_AT_EPOCH":"372","CENTER_NAME":"EARTH","SITE":"AFETR","RCS_SIZE":"LARGE","ELEMENT_SET_NO":"999","LAUNCH_DATE":"2021-12-02","GP_ID":"191948421","ARG_OF_PERICENTER":"59.4814","MEAN_ELEMENT_THEORY":"SGP4","PERIOD":"93.925","ECCENTRICITY":"0.00013540","APOAPSIS":"467.367","MEAN_MOTION_DOT":"-0.00659370","EPHEMERIS_TYPE":"0","INCLINATION":"53.2174","DECAY_DATE":null,"COUNTRY_CODE":"US","MEAN_MOTION_DDOT":"0.0000000000000"},{"ECCENTRICITY":"0.00013660","PERIOD":"93.482","MEAN_ELEMENT_THEORY":"SGP4","ARG_OF_PERICENTER":"56.3663","EPHEMERIS_TYPE":"0","MEAN_MOTION_DOT":"0.00069740","APOAPSIS":"445.839","DECAY_DATE":null,"INCLINATION":"53.2150","MEAN_MOTION_DDOT":"0.0000000000000","COUNTRY_CODE":"US","MEAN_ANOMALY":"289.3534","NORAD_CAT_ID":"49736","RA_OF_ASC_NODE":"243.5790","OBJECT_ID":"2021-115N","FILE":"3243681","BSTAR":"0.00169320000000","TIME_SYSTEM":"UTC","TLE_LINE2":"2 49736  53.2150 243.5790 0001366  56.3663 289.3534 15.40407692  2871","PERIAPSIS":"443.975","SEMIMAJOR_AXIS":"6823.042","OBJECT_TYPE":"PAYLOAD","CLASSIFICATION_TYPE":"U","OBJECT_NAME":"STARLINK-3148","TLE_LINE1":"1 49736U 21115N   21352.58334491  .00069740  00000-0  16932-2 0  9998","SITE":"AFETR","CENTER_NAME":"EARTH","EPOCH":"2021-12-18T14:00:01.000224","REF_FRAME":"TEME","REV_AT_EPOCH":"287","MEAN_MOTION":"15.40407692","GP_ID":"191944194","LAUNCH_DATE":"2021-12-02","ELEMENT_SET_NO":"999","RCS_SIZE":"MEDIUM"},{"RCS_SIZE":"LARGE","ELEMENT_SET_NO":"999","LAUNCH_DATE":"2021-12-02","GP_ID":"191949046","MEAN_MOTION":"15.40461206","EPOCH":"2021-12-18T22:00:00.999936","REV_AT_EPOCH":"372","REF_FRAME":"TEME","CENTER_NAME":"EARTH","SITE":"AFETR","TLE_LINE1":"1 49737U 21115P   21352.91667824 -.00001935  00000-0 -37262-4 0  9990","OBJECT_NAME":"STARLINK-3225","OBJECT_TYPE":"PAYLOAD","SEMIMAJOR_AXIS":"6822.884","CLASSIFICATION_TYPE":"U","TLE_LINE2":"2 49737  53.2174 242.0045 0001570  56.3769 340.9496 15.40461206  3726","PERIAPSIS":"443.678","TIME_SYSTEM":"UTC","FILE":"3243877","BSTAR":"-0.00003726200000","OBJECT_ID":"2021-115P","NORAD_CAT_ID":"49737","RA_OF_ASC_NODE":"242.0045","MEAN_ANOMALY":"340.9496","COUNTRY_CODE":"US","MEAN_MOTION_DDOT":"0.0000000000000","INCLINATION":"53.2174","DECAY_DATE":null,"APOAPSIS":"445.820","MEAN_MOTION_DOT":"-0.00001935","EPHEMERIS_TYPE":"0","ARG_OF_PERICENTER":"56.3769","MEAN_ELEMENT_THEORY":"SGP4","PERIOD":"93.478","ECCENTRICITY":"0.00015700"},{"DECAY_DATE":null,"INCLINATION":"53.2148","MEAN_MOTION_DDOT":"0.0000000000000","COUNTRY_CODE":"US","ECCENTRICITY":"0.00013590","PERIOD":"93.477","MEAN_ELEMENT_THEORY":"SGP4","ARG_OF_PERICENTER":"51.1734","EPHEMERIS_TYPE":"0","MEAN_MOTION_DOT":"-0.00052757","APOAPSIS":"445.611","SITE":"AFETR","CENTER_NAME":"EARTH","REF_FRAME":"TEME","EPOCH":"2021-12-18T22:00:00.999936","REV_AT_EPOCH":"372","MEAN_MOTION":"15.40483235","GP_ID":"191948997","LAUNCH_DATE":"2021-12-02","ELEMENT_SET_NO":"999","RCS_SIZE":"LARGE","MEAN_ANOMALY":"343.0409","NORAD_CAT_ID":"49738","RA_OF_ASC_NODE":"242.0117","FILE":"3243877","BSTAR":"-0.00128100000000","OBJECT_ID":"2021-115Q","TIME_SYSTEM":"UTC","TLE_LINE2":"2 49738  53.2148 242.0117 0001359  51.1734 343.0409 15.40483235  3722","PERIAPSIS":"443.757","CLASSIFICATION_TYPE":"U","OBJECT_TYPE":"PAYLOAD","SEMIMAJOR_AXIS":"6822.819","TLE_LINE1":"1 49738U 21115Q   21352.91667824 -.00052757  00000-0 -12810-2 0  9999","OBJECT_NAME":"STARLINK-3143"},{"RA_OF_ASC_NODE":"242.0712","NORAD_CAT_ID":"49739","MEAN_ANOMALY":"259.7153","BSTAR":"-0.02213800000000","FILE":"3243877","OBJECT_ID":"2021-115R","OBJECT_TYPE":"PAYLOAD","CLASSIFICATION_TYPE":"U","SEMIMAJOR_AXIS":"6845.887","PERIAPSIS":"466.802","TLE_LINE2":"2 49739  53.2174 242.0712 0001387  58.9741 259.7153 15.32703720  3721","TIME_SYSTEM":"UTC","TLE_LINE1":"1 49739U 21115R   21352.91667824 -.00658793  00000-0 -22138-1 0  9995","OBJECT_NAME":"STARLINK-3155","SITE":"AFETR","MEAN_MOTION":"15.32703720","REF_FRAME":"TEME","EPOCH":"2021-12-18T22:00:00.999936","REV_AT_EPOCH":"372","CENTER_NAME":"EARTH","GP_ID":"191949038","ELEMENT_SET_NO":"999","RCS_SIZE":"LARGE","LAUNCH_DATE":"2021-12-02","ECCENTRICITY":"0.00013870","ARG_OF_PERICENTER":"58.9741","MEAN_ELEMENT_THEORY":"SGP4","PERIOD":"93.952","APOAPSIS":"468.701","MEAN_MOTION_DOT":"-0.00658793","EPHEMERIS_TYPE":"0","DECAY_DATE":null,"INCLINATION":"53.2174","COUNTRY_CODE":"US","MEAN_MOTION_DDOT":"0.0000000000000"},{"DECAY_DATE":null,"INCLINATION":"53.2147","COUNTRY_CODE":"US","MEAN_MOTION_DDOT":"0.0000000000000","ECCENTRICITY":"0.00012870","ARG_OF_PERICENTER":"48.6591","PERIOD":"93.481","MEAN_ELEMENT_THEORY":"SGP4","APOAPSIS":"445.736","EPHEMERIS_TYPE":"0","MEAN_MOTION_DOT":"0.00051150","SITE":"AFETR","REF_FRAME":"TEME","EPOCH":"2021-12-18T14:00:01.000224","REV_AT_EPOCH":"286","MEAN_MOTION":"15.40424377","CENTER_NAME":"EARTH","GP_ID":"191944599","LAUNCH_DATE":"2021-12-02","RCS_SIZE":"MEDIUM","ELEMENT_SET_NO":"999","RA_OF_ASC_NODE":"243.5868","NORAD_CAT_ID":"49740","MEAN_ANOMALY":"292.8593","FILE":"3243681","BSTAR":"0.00124680000000","OBJECT_ID":"2021-115S","SEMIMAJOR_AXIS":"6822.993","OBJECT_TYPE":"PAYLOAD","CLASSIFICATION_TYPE":"U","TIME_SYSTEM":"UTC","PERIAPSIS":"443.980","TLE_LINE2":"2 49740  53.2147 243.5868 0001287  48.6591 292.8593 15.40424377  2866","TLE_LINE1":"1 49740U 21115S   21352.58334491  .00051150  00000-0  12468-2 0  9999","OBJECT_NAME":"STARLINK-3226"},{"ECCENTRICITY":"0.00014050","ARG_OF_PERICENTER":"52.3669","PERIOD":"93.481","MEAN_ELEMENT_THEORY":"SGP4","APOAPSIS":"445.837","EPHEMERIS_TYPE":"0","MEAN_MOTION_DOT":"0.00060835","DECAY_DATE":null,"INCLINATION":"53.2150","COUNTRY_CODE":"US","MEAN_MOTION_DDOT":"0.0000000000000","NORAD_CAT_ID":"49741","RA_OF_ASC_NODE":"243.5834","MEAN_ANOMALY":"291.2373","BSTAR":"0.00147950000000","FILE":"3243681","OBJECT_ID":"2021-115T","OBJECT_TYPE":"PAYLOAD","CLASSIFICATION_TYPE":"U","SEMIMAJOR_AXIS":"6823.014","TIME_SYSTEM":"UTC","PERIAPSIS":"443.920","TLE_LINE2":"2 49741  53.2150 243.5834 0001405  52.3669 291.2373 15.40417288  2877","TLE_LINE1":"1 49741U 21115T   21352.58334491  .00060835  00000-0  14795-2 0  9995","OBJECT_NAME":"STARLINK-3244","SITE":"AFETR","REF_FRAME":"TEME","EPOCH":"2021-12-18T14:00:01.000224","REV_AT_EPOCH":"287","MEAN_MOTION":"15.40417288","CENTER_NAME":"EARTH","GP_ID":"191944397","LAUNCH_DATE":"2021-12-02","ELEMENT_SET_NO":"999","RCS_SIZE":"MEDIUM"}];
